ONEWEB-0235             
1 48771U 21045E   25071.30820532  .00000181  00000+0  44709-3 0  9993
2 48771  87.9138 351.1963 0002462  77.9177 282.2229 13.15549575183650
ONEWEB-0242             
1 48772U 21045F   25071.53003444  .00000088  00000+0  19852-3 0  9991
2 48772  87.9135 351.1383 0002035  83.4704 276.6658 13.15549968183725
ONEWEB-0241             
1 48773U 21045G   25071.51736427  .00000081  00000+0  18143-3 0  9999
2 48773  87.9140 351.2112 0002090  70.0598 290.0757 13.15549765183632
ONEWEB-0243             
1 48774U 21045H   25071.47298903  .00000084  00000+0  19007-3 0  9990
2 48774  87.9148 351.1833 0002360  79.4514 280.6882 13.15551062183650
ONEWEB-0222             
1 48775U 21045J   25071.30423516  .00000218  00000+0  54394-3 0  9990
2 48775  87.9136 351.1913 0001942  74.8245 285.3100 13.15550742183673
ONEWEB-0244             
1 48776U 21045K   25071.48248821 -.00000031  00000+0 -11735-3 0  9991
2 48776  87.9135 351.1346 0002024  82.0842 278.0518 13.15547105184266
ONEWEB-0247             
1 48777U 21045L   25071.47932248  .00000049  00000+0  97312-4 0  9997
2 48777  87.9143 351.1971 0002871  77.9824 282.1628 13.15546848183702
ONEWEB-0245             
1 48778U 21045M   25071.47457371  .00000043  00000+0  79565-4 0  9991
2 48778  87.9137 351.1706 0001896  71.1972 288.9364 13.15550312183676
